<gpx xmlns="http://www.topografix.com/GPX/1/1" xmlns:xsi="http://www.w3.org/2001/XMLSchema-instance" xsi:schemaLocation="http://www.topografix.com/GPX/1/1 http://www.topografix.com/GPX/1/1/gpx.xsd" version="1.1" creator="The Ride Atlas - therideatlas.com">
  <metadata>
    <link href="https://therideatlas.com">
      <text>The Ride Atlas - Cycling Routes &amp; Guides</text>
    </link>
  </metadata><metadata/><trk><name>400 mts infantiles</name><desc>name=400 mts infantiles
styleUrl=#__managed_style_0AAA30DD80411D62786B
styleHash=undefined</desc><trkseg><trkpt lat="-35.43880435813628" lon="-69.60551509569169"><ele>0</ele></trkpt><trkpt lat="-35.4382700955335" lon="-69.59885161308962"><ele>0</ele></trkpt></trkseg></trk></gpx>